{"type":"FeatureCollection","metadata":{"layer":"empire_snapshots","build":"20261001-p","source_pack":"empire-snapshots-site-truth-2026-10-04.json","feature_count":12,"new_pins":0,"persia_polygons":0,"note":"Schematic hand-sketched polygons. Not surveyed borders. Not smoothed. Persia omitted."},"features":[{"type":"Feature","geometry":{"type":"Polygon","coordinates":[[[35.3,35.85],[34.9,34.55],[34.55,33.2],[34.9,32.1],[35.55,32.02],[36.15,32.7],[37.4,33.45],[40.0,34.5],[42.4,34.8],[44.05,35.05],[44.45,36.1],[43.9,37.2],[41.4,37.55],[38.6,37.45],[36.4,37.25],[36.05,36.6],[35.55,36.15],[35.3,35.85]]]},"properties":{"id":"EMP-722-assyria","layer_key":"empire_snapshot_722","toggle_id":"tog-emp-722","date_label":"~722 BCE","name":"Assyria \u2014 Levant holdings and Mesopotamian heartland (schematic)","polity":"Assyria","polity_key":"assyria","solidity":"mixed","status":"imperial_control","claim":"Around the fall of Samaria, Assyria is the power holding the northern Levant and the Assyrian heartland on the Tigris. This blob is that corridor: Nineveh, Kalhu (Nimrud), Dur-Sharrukin, and Assur, west through Carchemish and Sam'al into Syria, Phoenicia, and the old northern kingdom. It is a sketch of control, not a provincial map.","caveats":"Approximate political sketch, not a surveyed boundary. The line shows who roughly controlled the region, not a GPS border. Expect tens of kilometers of error. Do not zoom in and read a vertex as a real frontier post. Babylon is left out on purpose. Around 722 Merodach-baladan is holding Babylon against Assyria, so a solid Assyrian fill there would be a ghost empire. Egypt, Urartu, and Elam are outside the box. The line stops at the Zagros foothills and the upper Tigris; it does not trace mountain frontiers. Philistine Ashdod is outside this polygon. Coastal Philistia is not drawn as an Assyrian province in 722. Where this fill barely overlaps the Judah polygon, that sliver is the fuzzy Israel/Judah border near Bethel, not two empires sharing a capital. Damascus has been in the Assyrian orbit since Tiglath-pileser III took it (732). There is no Damascus dig pin on the map; the city is inside the polygon only as geography.","lsb_refs":["2 Kings 17:5\u20136","2 Kings 17:24","2 Kings 18:9\u201312","2 Kings 15:29"],"sources":["Am\u00e9lie Kuhrt, The Ancient Near East c. 3000\u2013330 BC (London: Routledge, 1995) \u2014 Assyrian, Babylonian, and Median extents after the fall of Nineveh.","Ephraim Stern, Archaeology of the Land of the Bible, Vol. II: The Assyrian, Babylonian, and Persian Periods (New York: Doubleday, 2001) \u2014 Levant under the empires.","Mordechai Cogan and Hayim Tadmor, II Kings (Anchor Bible; New York: Doubleday, 1988) \u2014 722, 701, and 586 campaigns.","Anson F. Rainey and R. Steven Notley, The Sacred Bridge: Carta's Atlas of the Biblical World (Jerusalem: Carta, 2006) \u2014 biblical-period historical geography and atlas maps.","Yohanan Aharoni and Michael Avi-Yonah, The Macmillan Bible Atlas, rev. ed. (New York: Macmillan, 1977) \u2014 period maps used as a sketch tradition, not as surveyed borders."],"anchors":[{"pin_id":"NIN-01","role":"heartland \u2014 Nineveh inside"},{"pin_id":"NIM-01","role":"heartland \u2014 Kalhu / Nimrud inside"},{"pin_id":"KHO-01","role":"heartland \u2014 Dur-Sharrukin inside"},{"pin_id":"ASR-01","role":"heartland \u2014 Assur inside"},{"pin_id":"CAR-01","role":"Euphrates crossing inside"},{"pin_id":"ZIN-01","role":"Sam'al client zone inside"},{"pin_id":"SAM-01","role":"conquered capital of Israel inside"},{"pin_id":"MEG-01","role":"Jezreel / Megiddo province zone inside"},{"pin_id":"HAZ-01,HAZ-02","role":"Galilee holding inside; id is the composite string on ot-digs"},{"pin_id":"DAN-01,DAN-02","role":"northern holding inside; composite id"},{"pin_id":"TYR-01","role":"Phoenician coast inside the orbit"},{"pin_id":"SID-01","role":"Phoenician coast inside the orbit"}],"fill":true,"fill_opacity":0.28,"dash":null,"draw_rank":1,"color":"#c4a35a","feature_kind":"empire_snapshot"}},{"type":"Feature","geometry":{"type":"Polygon","coordinates":[[[34.78,31.55],[34.85,31.2],[35.15,31.08],[35.48,31.25],[35.55,31.55],[35.48,32.02],[35.15,32.08],[34.82,32.06],[34.78,31.55]]]},"properties":{"id":"EMP-722-judah","layer_key":"empire_snapshot_722","toggle_id":"tog-emp-722","date_label":"~722 BCE","name":"Judah \u2014 surviving highland kingdom (schematic vassal, not annexed)","polity":"Judah","polity_key":"judah","solidity":"mixed","status":"vassal_kingdom","claim":"When Samaria falls, Judah is still a kingdom in the southern highlands and the Shephelah. It is already in Assyria's orbit (Ahaz had asked Assyria for help), but it is not turned into an Assyrian province. Paint this on top of any border sliver.","caveats":"Approximate political sketch, not a surveyed boundary. The line shows who roughly controlled the region, not a GPS border. Expect tens of kilometers of error. Do not zoom in and read a vertex as a real frontier post. Do not treat the outline as the tribal allotment of Judah. Tribal maps are a later pack. Ashdod stays outside (Philistine). Lachish, Hebron, Arad, and Jerusalem (City of David) stay inside. Gezer is on the western edge and may be a border town \u2014 the line is not that precise. Jericho is included as a rift-valley edge of the southern kingdom, not as a claim that the border was surveyed to the Jordan. Which king is on the throne in the exact year 722 (Ahaz, or a Hezekiah co-regency) is debated. The polygon does not depend on that argument. This is a vassal kingdom inside an imperial world, not a second empire.","lsb_refs":["2 Kings 16:5\u20139","2 Kings 18:1\u20137","2 Kings 18:13"],"sources":["Yohanan Aharoni, The Land of the Bible: A Historical Geography, 2nd ed. (Philadelphia: Westminster, 1979) \u2014 territorial history of Israel and Judah.","Anson F. Rainey and R. Steven Notley, The Sacred Bridge: Carta's Atlas of the Biblical World (Jerusalem: Carta, 2006) \u2014 biblical-period historical geography and atlas maps.","Mordechai Cogan and Hayim Tadmor, II Kings (Anchor Bible; New York: Doubleday, 1988) \u2014 722, 701, and 586 campaigns.","Yohanan Aharoni and Michael Avi-Yonah, The Macmillan Bible Atlas, rev. ed. (New York: Macmillan, 1977) \u2014 period maps used as a sketch tradition, not as surveyed borders."],"anchors":[{"pin_id":"COD-01","role":"Jerusalem \u2014 City of David inside. Not JER-01 (that id is Jericho)."},{"pin_id":"LAC-01","role":"Shephelah fortress still Judahite in 722"},{"pin_id":"HEB-01","role":"southern highland inside"},{"pin_id":"ARA-01","role":"Negev fortress inside the sketch"},{"pin_id":"GEZ-01,GEZ-02","role":"western border town, composite id"},{"pin_id":"BET-01","role":"northern border zone inside Judah sketch"},{"pin_id":"JER-01,JER-02","role":"Jericho \u2014 rift edge, composite id. This is Jericho, not Jerusalem."}],"fill":true,"fill_opacity":0.4,"dash":null,"draw_rank":2,"color":"#6b8f71","feature_kind":"empire_snapshot"}},{"type":"Feature","geometry":{"type":"Polygon","coordinates":[[[35.38,33.15],[35.02,32.75],[35.05,32.08],[35.45,32.0],[35.95,32.4],[35.92,33.2],[35.7,33.5],[35.4,33.48],[35.38,33.15]]]},"properties":{"id":"EMP-722-israel-former","layer_key":"empire_snapshot_722","toggle_id":"tog-emp-722","date_label":"~722 BCE","name":"Former Israel \u2014 absorbed outline (not a living kingdom)","polity":"Israel (northern kingdom)","polity_key":"israel_former","solidity":"weak","status":"absorbed_outline","claim":"The northern kingdom ends when Samaria falls. This outline is only a memory of where that kingdom sat (hill country, Jezreel, Galilee). It is not a state you can toggle as still alive. Draw it dashed, with no fill, so it does not look like a second country under Assyria.","caveats":"Approximate political sketch, not a surveyed boundary. The line shows who roughly controlled the region, not a GPS border. Expect tens of kilometers of error. Do not zoom in and read a vertex as a real frontier post. Label it 'former Israel \u2014 absorbed,' or leave it off if a dashed outline is too easy to misread as a living border. Tyre and Sidon are outside on purpose. They were Phoenician cities, not Israelite territory. The old kingdom's exact tribes and Transjordan districts are not drawn. This is the core a map user already has pins for. People from these towns were deported and other peoples were settled in (2 Kings 17). The outline does not show those movements.","lsb_refs":["2 Kings 17:5\u20136","2 Kings 17:18\u201324","2 Kings 18:9\u201312"],"sources":["Yohanan Aharoni, The Land of the Bible: A Historical Geography, 2nd ed. (Philadelphia: Westminster, 1979) \u2014 territorial history of Israel and Judah.","Mordechai Cogan and Hayim Tadmor, II Kings (Anchor Bible; New York: Doubleday, 1988) \u2014 722, 701, and 586 campaigns.","Anson F. Rainey and R. Steven Notley, The Sacred Bridge: Carta's Atlas of the Biblical World (Jerusalem: Carta, 2006) \u2014 biblical-period historical geography and atlas maps.","Ephraim Stern, Archaeology of the Land of the Bible, Vol. II: The Assyrian, Babylonian, and Persian Periods (New York: Doubleday, 2001) \u2014 Levant under the empires."],"anchors":[{"pin_id":"SAM-01","role":"capital that fell \u2014 inside the old kingdom"},{"pin_id":"SHE-01","role":"hill country inside"},{"pin_id":"MEG-01","role":"Jezreel inside"},{"pin_id":"HAZ-01,HAZ-02","role":"Galilee inside; composite id"},{"pin_id":"DAN-01,DAN-02","role":"northern edge inside; composite id"}],"fill":false,"fill_opacity":0,"dash":"6 4","draw_rank":3,"color":"#8a8f7a","feature_kind":"empire_snapshot"}},{"type":"Feature","geometry":{"type":"Polygon","coordinates":[[[35.3,35.85],[34.9,34.55],[34.55,33.2],[34.4,32.3],[34.35,31.25],[35.55,31.3],[36.3,32.2],[37.4,33.45],[40.0,34.5],[42.4,34.8],[44.05,35.05],[44.45,36.1],[43.9,37.2],[41.4,37.55],[38.6,37.45],[36.4,37.25],[36.05,36.6],[35.55,36.15],[35.3,35.85]]]},"properties":{"id":"EMP-701-assyria","layer_key":"empire_snapshot_701","toggle_id":"tog-emp-701","date_label":"~701 BCE","name":"Assyria \u2014 heartland plus 701 campaign zone in Judah's west (schematic)","polity":"Assyria","polity_key":"assyria","solidity":"mixed","status":"imperial_control","claim":"In Sennacherib's campaign year Assyria still holds the same heartland and the Levant, and the army is in Judah's western lowlands. The fill comes south through the Shephelah and the Philistine coast so Lachish and Ashdod sit in the campaign zone. Jerusalem also falls inside this large orbit polygon. That does not mean Jerusalem was annexed \u2014 paint reduced Judah on top.","caveats":"Approximate political sketch, not a surveyed boundary. The line shows who roughly controlled the region, not a GPS border. Expect tens of kilometers of error. Do not zoom in and read a vertex as a real frontier post. Babylon is still omitted. Sennacherib spends these years fighting there; it is a war zone, not a settled province to color in. The Assyrian text says many Judahite cities were taken and Hezekiah was shut up in Jerusalem. Those cities are not dotted. Lachish is the one city called out because the map already has the pin and the palace reliefs. Overlap with the reduced-Judah polygon means 'vassal pocket inside the imperial orbit,' not double rule of the same kind. Draw Judah above this fill. Egypt is not invaded in this sketch. The south edge stops at the Philistine coast.","lsb_refs":["2 Kings 18:13\u201317","2 Kings 19:32\u201336","Isaiah 36:1\u20132","2 Chronicles 32:1\u20139"],"sources":["Daniel David Luckenbill, The Annals of Sennacherib (OIP 2; Chicago: University of Chicago Press, 1924) \u2014 Sennacherib's claim to have taken Judahite cities and confined Hezekiah to Jerusalem. Paraphrased; the city list is not plotted.","Mordechai Cogan and Hayim Tadmor, II Kings (Anchor Bible; New York: Doubleday, 1988) \u2014 722, 701, and 586 campaigns.","Ephraim Stern, Archaeology of the Land of the Bible, Vol. II: The Assyrian, Babylonian, and Persian Periods (New York: Doubleday, 2001) \u2014 Levant under the empires.","Anson F. Rainey and R. Steven Notley, The Sacred Bridge: Carta's Atlas of the Biblical World (Jerusalem: Carta, 2006) \u2014 biblical-period historical geography and atlas maps.","Am\u00e9lie Kuhrt, The Ancient Near East c. 3000\u2013330 BC (London: Routledge, 1995) \u2014 Assyrian, Babylonian, and Median extents after the fall of Nineveh."],"anchors":[{"pin_id":"NIN-01","role":"heartland inside"},{"pin_id":"NIM-01","role":"heartland inside"},{"pin_id":"KHO-01","role":"heartland inside"},{"pin_id":"ASR-01","role":"heartland inside"},{"pin_id":"LAC-01","role":"campaign zone \u2014 Lachish taken; inside Assyria orbit, outside reduced Judah"},{"pin_id":"ASD-01","role":"Philistine coast in the campaign orbit"},{"pin_id":"GEZ-01,GEZ-02","role":"Shephelah edge inside the campaign orbit"},{"pin_id":"SAM-01","role":"already an Assyrian provincial center"},{"pin_id":"CAR-01","role":"Euphrates approach inside"},{"pin_id":"ZIN-01","role":"north Syria client zone inside"}],"fill":true,"fill_opacity":0.28,"dash":null,"draw_rank":1,"color":"#c4a35a","feature_kind":"empire_snapshot"}},{"type":"Feature","geometry":{"type":"Polygon","coordinates":[[[34.98,31.62],[35.02,31.34],[35.2,31.3],[35.5,31.36],[35.56,31.6],[35.52,31.92],[35.28,31.98],[35.02,31.96],[34.98,31.62]]]},"properties":{"id":"EMP-701-judah","layer_key":"empire_snapshot_701","toggle_id":"tog-emp-701","date_label":"~701 BCE","name":"Judah \u2014 highland remnant after Sennacherib (schematic)","polity":"Judah","polity_key":"judah","solidity":"weak","status":"reduced_vassal_kingdom","claim":"After the 701 campaign Hezekiah still holds Jerusalem and the highland core. This small polygon is that leftover kingdom. It is a cartoon of 'what was left,' not a plot of the 46 cities named in Sennacherib's annals.","caveats":"Approximate political sketch, not a surveyed boundary. The line shows who roughly controlled the region, not a GPS border. Expect tens of kilometers of error. Do not zoom in and read a vertex as a real frontier post. Solidity is weak because the edges are a guess. The fact that Jerusalem was not taken, and that the western lowlands were overrun, is the part that is solid. Lachish, Gezer, Arad, and Ashdod are outside this polygon on purpose. Lachish was besieged and taken. Do not 'fix' the polygon to include it. Draw this on top of the Assyria fill. Where they overlap, Judah is the vassal pocket. The Bible says the Assyrian army left and Jerusalem stood (2 Kings 19). The Assyrian annals stress the siege and the tribute. Both can be true; the polygon is not a winner's trophy.","lsb_refs":["2 Kings 18:13\u201317","2 Kings 19:32\u201336","Isaiah 37:33\u201337","2 Chronicles 32:9\u201322"],"sources":["Daniel David Luckenbill, The Annals of Sennacherib (OIP 2; Chicago: University of Chicago Press, 1924) \u2014 Sennacherib's claim to have taken Judahite cities and confined Hezekiah to Jerusalem. Paraphrased; the city list is not plotted.","Mordechai Cogan and Hayim Tadmor, II Kings (Anchor Bible; New York: Doubleday, 1988) \u2014 722, 701, and 586 campaigns.","Yohanan Aharoni, The Land of the Bible: A Historical Geography, 2nd ed. (Philadelphia: Westminster, 1979) \u2014 territorial history of Israel and Judah.","Anson F. Rainey and R. Steven Notley, The Sacred Bridge: Carta's Atlas of the Biblical World (Jerusalem: Carta, 2006) \u2014 biblical-period historical geography and atlas maps."],"anchors":[{"pin_id":"COD-01","role":"Jerusalem survived inside the remnant"},{"pin_id":"HEB-01","role":"highland core inside"},{"pin_id":"LAC-01","role":"NOT inside this polygon \u2014 taken in the campaign; anchor is a warning, not a centroid"}],"fill":true,"fill_opacity":0.5,"dash":null,"draw_rank":2,"color":"#6b8f71","feature_kind":"empire_snapshot"}},{"type":"Feature","geometry":{"type":"Polygon","coordinates":[[[35.7,31.15],[38.2,31.9],[41.2,31.5],[43.8,30.4],[46.45,30.55],[46.55,32.7],[44.9,34.6],[42.6,35.15],[40.8,36.3],[38.4,37.1],[36.3,36.95],[35.4,36.15],[34.55,33.5],[34.4,31.25],[35.7,31.15]]]},"properties":{"id":"EMP-586-babylon","layer_key":"empire_snapshot_586","toggle_id":"tog-emp-586","date_label":"~586 BCE","name":"Neo-Babylonian empire \u2014 Babylon heartland and the Levant (schematic)","polity":"Babylon (Neo-Babylonian)","polity_key":"babylon","solidity":"mixed","status":"imperial_control","claim":"By the fall of Jerusalem, the Neo-Babylonian empire holds Babylon and the south Mesopotamian heartland, the Euphrates route up to Carchemish, and the Levant that used to be Assyria's west. Judah is inside this fill because the kingdom has been destroyed and the land is Babylon's.","caveats":"Approximate political sketch, not a surveyed boundary. The line shows who roughly controlled the region, not a GPS border. Expect tens of kilometers of error. Do not zoom in and read a vertex as a real frontier post. The old Assyrian triangle is not colored Babylonian. Nineveh, Nimrud, Khorsabad, and Assur sit outside. After 612 that northland is mostly Median. Media is not one of the locked polities, so it is absent instead of invented. Susa and Ecbatana are outside. Elam and the Iranian plateau are not this empire's drawn core. Egypt is the neighbor across the Sinai edge, not inside the polygon. Nebuchadnezzar fought Egypt; he did not swallow it. Carchemish (605) is the northern Syrian edge this sketch is willing to claim. Zincirli / Sam'al is left outside as too far into the mountains. A smaller 'former Judah' outline sits on top. It is a label, not a surviving kingdom.","lsb_refs":["2 Kings 24:10\u201316","2 Kings 25:1\u201312","2 Chronicles 36:17\u201321","Jeremiah 39:1\u201310","Jeremiah 52:4\u201316"],"sources":["Am\u00e9lie Kuhrt, The Ancient Near East c. 3000\u2013330 BC (London: Routledge, 1995) \u2014 Assyrian, Babylonian, and Median extents after the fall of Nineveh.","Ephraim Stern, Archaeology of the Land of the Bible, Vol. II: The Assyrian, Babylonian, and Persian Periods (New York: Doubleday, 2001) \u2014 Levant under the empires.","Mordechai Cogan and Hayim Tadmor, II Kings (Anchor Bible; New York: Doubleday, 1988) \u2014 722, 701, and 586 campaigns.","Anson F. Rainey and R. Steven Notley, The Sacred Bridge: Carta's Atlas of the Biblical World (Jerusalem: Carta, 2006) \u2014 biblical-period historical geography and atlas maps.","Yohanan Aharoni and Michael Avi-Yonah, The Macmillan Bible Atlas, rev. ed. (New York: Macmillan, 1977) \u2014 period maps used as a sketch tradition, not as surveyed borders."],"anchors":[{"pin_id":"BAB-01","role":"capital inside"},{"pin_id":"UR-01","role":"southern heartland inside"},{"pin_id":"CAR-01","role":"northern Syrian edge inside"},{"pin_id":"COD-01","role":"Jerusalem fallen, now inside Babylonian control"},{"pin_id":"LAC-01","role":"Judahite city inside the Babylonian Levant"},{"pin_id":"SAM-01","role":"Levant inside"},{"pin_id":"NIN-01","role":"NOT inside \u2014 former Assyrian capital left with the Median north"}],"fill":true,"fill_opacity":0.28,"dash":null,"draw_rank":1,"color":"#b85c38","feature_kind":"empire_snapshot"}},{"type":"Feature","geometry":{"type":"Polygon","coordinates":[[[34.78,31.65],[34.85,31.25],[35.15,31.05],[35.5,31.22],[35.58,31.55],[35.45,32.0],[35.1,32.04],[34.8,32.0],[34.78,31.65]]]},"properties":{"id":"EMP-586-judah-former","layer_key":"empire_snapshot_586","toggle_id":"tog-emp-586","date_label":"~586 BCE","name":"Former Judah \u2014 destroyed kingdom, now Babylonian (outline only)","polity":"Judah","polity_key":"judah_former","solidity":"weak","status":"absorbed_outline","claim":"Judah is not an independent kingdom in 586. This outline marks the land that had been the kingdom so a user can still see it under the Babylonian fill. Label: 'former Judah, now Babylonian.' No fill.","caveats":"Approximate political sketch, not a surveyed boundary. The line shows who roughly controlled the region, not a GPS border. Expect tens of kilometers of error. Do not zoom in and read a vertex as a real frontier post. Gedaliah governs a remnant from Mizpah for Babylon (2 Kings 25). That is an administration, not a restored kingdom, and Mizpah is not given a new pin. Ashdod stays outside the outline. It was not a Judahite royal city. Do not read the outline as the 586 siege wall or as the tribal border.","lsb_refs":["2 Kings 25:1\u201312","2 Kings 25:22\u201326","Jeremiah 40:5\u201312"],"sources":["Mordechai Cogan and Hayim Tadmor, II Kings (Anchor Bible; New York: Doubleday, 1988) \u2014 722, 701, and 586 campaigns.","Yohanan Aharoni, The Land of the Bible: A Historical Geography, 2nd ed. (Philadelphia: Westminster, 1979) \u2014 territorial history of Israel and Judah.","Ephraim Stern, Archaeology of the Land of the Bible, Vol. II: The Assyrian, Babylonian, and Persian Periods (New York: Doubleday, 2001) \u2014 Levant under the empires."],"anchors":[{"pin_id":"COD-01","role":"fallen capital inside the old kingdom outline"},{"pin_id":"LAC-01","role":"inside the old kingdom outline"},{"pin_id":"HEB-01","role":"inside the old kingdom outline"},{"pin_id":"ARA-01","role":"Negev edge of the outline"}],"fill":false,"fill_opacity":0,"dash":"6 4","draw_rank":2,"color":"#6b8f71","feature_kind":"empire_snapshot"}},{"type":"Feature","geometry":{"type":"Polygon","coordinates":[[[35.55,33.38],[36.85,33.28],[37.2,35.6],[36.7,36.9],[35.95,36.65],[35.55,36.05],[35.15,34.4],[34.95,33.15],[35.55,33.38]]]},"properties":{"id":"EMP-30-syria","layer_key":"empire_snapshot_30","toggle_id":"tog-emp-30","date_label":"~30 CE","name":"Roman Syria \u2014 provincial core (Antioch, Phoenician coast, Damascus)","polity":"Rome","polity_key":"rome_syria","solidity":"mixed","status":"roman_province","claim":"The nearer Roman frame for Jesus' day is the province of Syria, governed from Antioch. This sketch is that core: Antioch, the coast through Sidon and Tyre, and Damascus. It is not a polygon of the Mediterranean, and it is not painted over Judea or Galilee.","caveats":"Approximate political sketch, not a surveyed boundary. The line shows who roughly controlled the region, not a GPS border. Expect tens of kilometers of error. Do not zoom in and read a vertex as a real frontier post. Decapolis cities (HIPP-01 Hippos is the pin) belong to this Syrian orbit but do not get their own polygon. One blob would swallow Galilee. Mention them in the panel, do not re-pin. The south edge stops above Philip's box and above Galilee. A hairline gap is better than a fake shared border. The province of Syria legally reached farther than this cartoon. The cartoon is the part that explains the digs. Assyria, Babylon, and Persia are not drawn at this date. They are gone.","lsb_refs":["Luke 3:1","Acts 11:19\u201326"],"sources":["Emil Sch\u00fcrer, The History of the Jewish People in the Age of Jesus Christ, rev. Geza Vermes and Fergus Millar, vol. 1 (Edinburgh: T&T Clark, 1973) \u2014 prefecture of Judea and the Herodian tetrarchies.","Anson F. Rainey and R. Steven Notley, The Sacred Bridge: Carta's Atlas of the Biblical World (Jerusalem: Carta, 2006) \u2014 biblical-period historical geography and atlas maps.","Yohanan Aharoni and Michael Avi-Yonah, The Macmillan Bible Atlas, rev. ed. (New York: Macmillan, 1977) \u2014 period maps used as a sketch tradition, not as surveyed borders."],"anchors":[{"pin_id":"ANT-01","role":"provincial capital inside"},{"pin_id":"TYR-01","role":"Phoenician coast inside Syria, not Galilee"},{"pin_id":"SID-01","role":"Phoenician coast inside"}],"fill":true,"fill_opacity":0.25,"dash":null,"draw_rank":1,"color":"#9a4d6b","feature_kind":"empire_snapshot"}},{"type":"Feature","geometry":{"type":"Polygon","coordinates":[[[34.48,32.15],[34.55,31.7],[34.85,31.18],[35.3,31.15],[35.58,31.55],[35.55,32.15],[35.35,32.55],[35.05,32.6],[34.62,32.58],[34.48,32.15]]]},"properties":{"id":"EMP-30-judea","layer_key":"empire_snapshot_30","toggle_id":"tog-emp-30","date_label":"~30 CE","name":"Roman Judea \u2014 prefecture of Judea, Samaria, and Idumea (schematic)","polity":"Rome","polity_key":"rome_judea","solidity":"mixed","status":"roman_province_prefecture","claim":"In Jesus' adult years Judea is not a kingdom. A Roman prefect (Pontius Pilate, about 26\u201336 CE) governs Judea, Samaria, and Idumea from Caesarea. This polygon is that prefecture: Jerusalem, Bethlehem, Hebron, Jericho, Samaria, Joppa, and Caesarea. It is not a map of the whole Roman Empire.","caveats":"Approximate political sketch, not a surveyed boundary. The line shows who roughly controlled the region, not a GPS border. Expect tens of kilometers of error. Do not zoom in and read a vertex as a real frontier post. Galilee is a different feature (Herod Antipas). Do not merge them. Megiddo and the Jezreel valley are left in the gap between this polygon and Galilee. Assigning that valley to either side would fake a border we do not have. Gaza and the Nabatean south are not carefully traced. The south edge is Idumea in cartoon form. Rome the city is the ROME-01 / ROME-02 / ROME-03 pins. Do not stretch this polygon to Italy. Herod the Great's united kingdom is already over (he dies in 4 BCE). This is the split map.","lsb_refs":["Luke 3:1\u20132","Matthew 27:2","John 18:28\u201319:16"],"sources":["Emil Sch\u00fcrer, The History of the Jewish People in the Age of Jesus Christ, rev. Geza Vermes and Fergus Millar, vol. 1 (Edinburgh: T&T Clark, 1973) \u2014 prefecture of Judea and the Herodian tetrarchies.","Anson F. Rainey and R. Steven Notley, The Sacred Bridge: Carta's Atlas of the Biblical World (Jerusalem: Carta, 2006) \u2014 biblical-period historical geography and atlas maps.","Yohanan Aharoni and Michael Avi-Yonah, The Macmillan Bible Atlas, rev. ed. (New York: Macmillan, 1977) \u2014 period maps used as a sketch tradition, not as surveyed borders."],"anchors":[{"pin_id":"JER-NT-01","role":"Jerusalem inside the prefecture"},{"pin_id":"COD-01","role":"same city, OT dig id, also inside"},{"pin_id":"BETHL-01","role":"inside"},{"pin_id":"HEB-01","role":"Idumea / Judah hills inside"},{"pin_id":"SAM-01","role":"Samaria inside the prefecture"},{"pin_id":"CAES-01,CAES-02","role":"governor's seat, composite id"},{"pin_id":"JOP-01","role":"coast inside"},{"pin_id":"JER-01,JER-02","role":"Jericho OT tel \u2014 rift edge inside. Not Jerusalem."},{"pin_id":"JERNT-01","role":"Herodian Jericho inside"}],"fill":true,"fill_opacity":0.35,"dash":null,"draw_rank":2,"color":"#8d6a9f","feature_kind":"empire_snapshot"}},{"type":"Feature","geometry":{"type":"Polygon","coordinates":[[[35.02,32.64],[35.3,32.6],[35.55,32.64],[35.64,32.88],[35.4,33.05],[35.15,33.2],[35.0,33.0],[34.98,32.8],[35.02,32.64]]]},"properties":{"id":"EMP-30-antipas-galilee","layer_key":"empire_snapshot_30","toggle_id":"tog-emp-30","date_label":"~30 CE","name":"Herod Antipas \u2014 Galilee (schematic tetrarchy)","polity":"Herod Antipas (Rome's client)","polity_key":"antipas_galilee","solidity":"mixed","status":"client_tetrarchy","claim":"Herod Antipas is tetrarch of Galilee and Perea, not a Roman prefect and not a king of the Jews. This piece is only Galilee: Nazareth, Sepphoris, and Capernaum on the lake. Perea is a second polygon because one ring cannot jump the Jordan.","caveats":"Approximate political sketch, not a surveyed boundary. The line shows who roughly controlled the region, not a GPS border. Expect tens of kilometers of error. Do not zoom in and read a vertex as a real frontier post. Client ruler under Rome, not an independent empire. Luke 3:1 names him beside Pilate on purpose. Hippos (HIPP-01) is a Decapolis city east of the lake and stays outside. Do not pull the polygon across the lake to grab it. Tyre and Sidon are in the Syria feature, not Galilee. Caesarea Philippi / Banias is Philip's tetrarchy, not Antipas. Megiddo is left in the gap south of this polygon.","lsb_refs":["Luke 3:1","Luke 23:6\u201312","Matthew 14:1\u201312"],"sources":["Emil Sch\u00fcrer, The History of the Jewish People in the Age of Jesus Christ, rev. Geza Vermes and Fergus Millar, vol. 1 (Edinburgh: T&T Clark, 1973) \u2014 prefecture of Judea and the Herodian tetrarchies.","Anson F. Rainey and R. Steven Notley, The Sacred Bridge: Carta's Atlas of the Biblical World (Jerusalem: Carta, 2006) \u2014 biblical-period historical geography and atlas maps."],"anchors":[{"pin_id":"NAZ-01","role":"inside Galilee"},{"pin_id":"SEP-01","role":"Antipas's Galilean city inside"},{"pin_id":"CAP-01,CAP-02","role":"north shore inside; composite id"}],"fill":true,"fill_opacity":0.4,"dash":null,"draw_rank":3,"color":"#3d7ea6","feature_kind":"empire_snapshot"}},{"type":"Feature","geometry":{"type":"Polygon","coordinates":[[[35.55,31.5],[35.75,31.48],[35.98,31.55],[36.05,32.0],[36.0,32.42],[35.75,32.5],[35.55,32.4],[35.52,31.9],[35.55,31.5]]]},"properties":{"id":"EMP-30-antipas-perea","layer_key":"empire_snapshot_30","toggle_id":"tog-emp-30","date_label":"~30 CE","name":"Herod Antipas \u2014 Perea, east of the Jordan (schematic)","polity":"Herod Antipas (Rome's client)","polity_key":"antipas_perea","solidity":"weak","status":"client_tetrarchy","claim":"Perea is the other half of Antipas's tetrarchy: a strip east of the Jordan, roughly from opposite Jericho up toward the Decapolis edge. No existing dig pin sits in the strip, and none is invented.","caveats":"Approximate political sketch, not a surveyed boundary. The line shows who roughly controlled the region, not a GPS border. Expect tens of kilometers of error. Do not zoom in and read a vertex as a real frontier post. Solidity is weak. Ancient writers agree Antipas held Perea; they do not agree on a fence line. Machaerus is the famous fortress of this region and is not a pin on this map. Do not add one from this pack. Philadelphia (Amman) and Hippos are Decapolis and stay outside. Jericho is west of the river and stays in the Judea polygon.","lsb_refs":["Luke 3:1","Luke 23:6\u20137"],"sources":["Emil Sch\u00fcrer, The History of the Jewish People in the Age of Jesus Christ, rev. Geza Vermes and Fergus Millar, vol. 1 (Edinburgh: T&T Clark, 1973) \u2014 prefecture of Judea and the Herodian tetrarchies.","Anson F. Rainey and R. Steven Notley, The Sacred Bridge: Carta's Atlas of the Biblical World (Jerusalem: Carta, 2006) \u2014 biblical-period historical geography and atlas maps."],"fill":true,"fill_opacity":0.4,"dash":null,"draw_rank":3,"color":"#3d7ea6","feature_kind":"empire_snapshot"}},{"type":"Feature","geometry":{"type":"Polygon","coordinates":[[[35.52,32.98],[35.8,32.92],[36.08,33.05],[36.1,33.3],[35.8,33.32],[35.5,33.3],[35.42,33.2],[35.48,33.05],[35.52,32.98]]]},"properties":{"id":"EMP-30-philip","layer_key":"empire_snapshot_30","toggle_id":"tog-emp-30","date_label":"~30 CE","name":"Philip \u2014 Gaulanitis and Paneas (schematic tetrarchy)","polity":"Philip the tetrarch (Rome's client)","polity_key":"philip","solidity":"weak","status":"client_tetrarchy","claim":"Luke 3:1 also names Philip as tetrarch of Iturea and Trachonitis. At about 30 CE he is still ruling (he dies in 34). This box is only the part we can place without swallowing Galilee or Damascus: the Golan / Banias block, including Dan and Caesarea Philippi.","caveats":"Approximate political sketch, not a surveyed boundary. The line shows who roughly controlled the region, not a GPS border. Expect tens of kilometers of error. Do not zoom in and read a vertex as a real frontier post. Iturea and Trachonitis extend farther north and east than this box. Those edges are fuzzy, so they are not drawn. The box will look too small if you treat it as Philip's whole title. Solidity is weak on the line, mixed-to-strong on the fact that Banias is Philip's city. Not Antipas, not the Decapolis, not the prefecture of Judea. Lysanias of Abilene is named in the same verse and is not drawn. Abilene is a small district around the Anti-Lebanon with no pin and no clean polygon here.","lsb_refs":["Luke 3:1","Matthew 16:13"],"sources":["Emil Sch\u00fcrer, The History of the Jewish People in the Age of Jesus Christ, rev. Geza Vermes and Fergus Millar, vol. 1 (Edinburgh: T&T Clark, 1973) \u2014 prefecture of Judea and the Herodian tetrarchies.","Anson F. Rainey and R. Steven Notley, The Sacred Bridge: Carta's Atlas of the Biblical World (Jerusalem: Carta, 2006) \u2014 biblical-period historical geography and atlas maps."],"anchors":[{"pin_id":"BAN-01","role":"Caesarea Philippi inside"},{"pin_id":"DAN-01,DAN-02","role":"Golan edge inside; composite id"}],"fill":true,"fill_opacity":0.4,"dash":null,"draw_rank":3,"color":"#5b8fa8","feature_kind":"empire_snapshot"}}]}